start=new Date('2022-01-05T00:00:00.000Z').valueOf();
sats=[{"OBJECT_NAME":"STARLINK-1784","INCLINATION":"53.0547","ECCENTRICITY":"0.00021780","DECAY_DATE":null,"COUNTRY_CODE":"US","LAUNCH_DATE":"2020-10-18","TLE_LINE1":"1 46687U 20073T   22004.87471838 -.00001205  00000-0 -61993-4 0  9999","MEAN_ELEMENT_THEORY":"SGP4","BSTAR":"-0.00006199300000","OBJECT_ID":"2020-073T","EPOCH":"2022-01-04T20:59:35.668032","TIME_SYSTEM":"UTC","MEAN_MOTION":"15.06397868","GP_ID":"193215424","CLASSIFICATION_TYPE":"U","EPHEMERIS_TYPE":"0","NORAD_CAT_ID":"46687","FILE":"3264067","SITE":"AFETR","APOAPSIS":"548.728","MEAN_MOTION_DOT":"-0.00001205","ELEMENT_SET_NO":"999","OBJECT_TYPE":"PAYLOAD","REF_FRAME":"TEME","MEAN_MOTION_DDOT":"0.0000000000000","RCS_SIZE":"LARGE","RA_OF_ASC_NODE":"226.7716","PERIOD":"95.592","ARG_OF_PERICENTER":"66.7630","REV_AT_EPOCH":"6758","PERIAPSIS":"545.712","TLE_LINE2":"2 46687  53.0547 226.7716 0002178  66.7630 293.3588 15.06397868 67581","MEAN_ANOMALY":"293.3588","SEMIMAJOR_AXIS":"6925.355","CENTER_NAME":"EARTH"},{"MEAN_ELEMENT_THEORY":"SGP4","TLE_LINE1":"1 46688U 20073U   22004.84852645  .00419933  00000-0  18336-2 0  9996","BSTAR":"0.00183360000000","ECCENTRICITY":"0.00078490","OBJECT_NAME":"STARLINK-1786","INCLINATION":"53.0518","COUNTRY_CODE":"US","LAUNCH_DATE":"2020-10-18","DECAY_DATE":null,"EPHEMERIS_TYPE":"0","NORAD_CAT_ID":"46688","GP_ID":"193216174","MEAN_MOTION":"15.83029384","CLASSIFICATION_TYPE":"U","FILE":"3264067","OBJECT_ID":"2020-073U","EPOCH":"2022-01-04T20:21:52.685280","TIME_SYSTEM":"UTC","OBJECT_TYPE":"PAYLOAD","REF_FRAME":"TEME","MEAN_MOTION_DDOT":"0.0000000000000","SITE":"AFETR","ELEMENT_SET_NO":"999","APOAPSIS":"327.140","MEAN_MOTION_DOT":"0.00419933","TLE_LINE2":"2 46688  53.0518 218.5168 0007849 278.5063  81.5070 15.83029384 67700","MEAN_ANOMALY":"81.5070","CENTER_NAME":"EARTH","SEMIMAJOR_AXIS":"6700.016","RCS_SIZE":"LARGE","PERIOD":"90.965","RA_OF_ASC_NODE":"218.5168","PERIAPSIS":"316.622","ARG_OF_PERICENTER":"278.5063","REV_AT_EPOCH":"6770"},{"PERIOD":"95.592","RA_OF_ASC_NODE":"261.6801","RCS_SIZE":"LARGE","PERIAPSIS":"545.855","REV_AT_EPOCH":"6834","ARG_OF_PERICENTER":"56.7554","MEAN_ANOMALY":"303.3621","TLE_LINE2":"2 46689  53.0554 261.6801 0001946  56.7554 303.3621 15.06403432 68340","CENTER_NAME":"EARTH","SEMIMAJOR_AXIS":"6925.338","SITE":"AFETR","ELEMENT_SET_NO":"999","MEAN_MOTION_DOT":"0.00000264","APOAPSIS":"548.551","OBJECT_TYPE":"PAYLOAD","MEAN_MOTION_DDOT":"0.0000000000000","REF_FRAME":"TEME","TIME_SYSTEM":"UTC","OBJECT_ID":"2020-073V","EPOCH":"2022-01-04T21:34:44.658336","EPHEMERIS_TYPE":"0","NORAD_CAT_ID":"46689","MEAN_MOTION":"15.06403432","GP_ID":"193214922","CLASSIFICATION_TYPE":"U","FILE":"3264067","ECCENTRICITY":"0.00019460","INCLINATION":"53.0554","OBJECT_NAME":"STARLINK-1788","LAUNCH_DATE":"2020-10-18","COUNTRY_CODE":"US","DECAY_DATE":null,"MEAN_ELEMENT_THEORY":"SGP4","TLE_LINE1":"1 46689U 20073V   22004.89912799  .00000264  00000-0  36662-4 0  9996","BSTAR":"0.00003666200000"},{"FILE":"3264067","EPHEMERIS_TYPE":"0","NORAD_CAT_ID":"46690","MEAN_MOTION":"15.06404790","GP_ID":"193215172","CLASSIFICATION_TYPE":"U","TIME_SYSTEM":"UTC","EPOCH":"2022-01-04T21:35:24.826560","OBJECT_ID":"2020-073W","BSTAR":"0.00012696000000","MEAN_ELEMENT_THEORY":"SGP4","TLE_LINE1":"1 46690U 20073W   22004.89959290  .00001610  00000-0  12696-3 0  9991","COUNTRY_CODE":"US","LAUNCH_DATE":"2020-10-18","DECAY_DATE":null,"ECCENTRICITY":"0.00020520","OBJECT_NAME":"STARLINK-1789","INCLINATION":"53.0532","CENTER_NAME":"EARTH","SEMIMAJOR_AXIS":"6925.334","MEAN_ANOMALY":"297.7006","TLE_LINE2":"2 46690  53.0532 236.6580 0002052  62.4191 297.7006 15.06404790 67445","PERIAPSIS":"545.778","REV_AT_EPOCH":"6744","ARG_OF_PERICENTER":"62.4191","PERIOD":"95.592","RA_OF_ASC_NODE":"236.6580","RCS_SIZE":"LARGE","MEAN_MOTION_DDOT":"0.0000000000000","REF_FRAME":"TEME","OBJECT_TYPE":"PAYLOAD","ELEMENT_SET_NO":"999","MEAN_MOTION_DOT":"0.00001610","APOAPSIS":"548.620","SITE":"AFETR"},{"ARG_OF_PERICENTER":"62.8809","REV_AT_EPOCH":"6730","PERIAPSIS":"545.799","RCS_SIZE":"LARGE","RA_OF_ASC_NODE":"246.6832","PERIOD":"95.593","SEMIMAJOR_AXIS":"6925.372","CENTER_NAME":"EARTH","TLE_LINE2":"2 46691  53.0557 246.6832 0002076  62.8809 297.2392 15.06392463 67301","MEAN_ANOMALY":"297.2392","APOAPSIS":"548.674","MEAN_MOTION_DOT":"-0.00000071","ELEMENT_SET_NO":"999","SITE":"AFETR","REF_FRAME":"TEME","MEAN_MOTION_DDOT":"0.0000000000000","OBJECT_TYPE":"PAYLOAD","EPOCH":"2022-01-04T21:34:05.901888","OBJECT_ID":"2020-073X","TIME_SYSTEM":"UTC","FILE":"3264067","GP_ID":"193215924","CLASSIFICATION_TYPE":"U","MEAN_MOTION":"15.06392463","EPHEMERIS_TYPE":"0","NORAD_CAT_ID":"46691","DECAY_DATE":null,"LAUNCH_DATE":"2020-10-18","COUNTRY_CODE":"US","INCLINATION":"53.0557","OBJECT_NAME":"STARLINK-1790","ECCENTRICITY":"0.00020760","BSTAR":"0.00001415900000","TLE_LINE1":"1 46691U 20073X   22004.89867942 -.00000071  00000-0  14159-4 0  9992","MEAN_ELEMENT_THEORY":"SGP4"},{"MEAN_ANOMALY":"297.6901","TLE_LINE2":"2 46692  53.0536 261.7322 0001931  62.4284 297.6901 15.06402258 67093","SEMIMAJOR_AXIS":"6925.342","CENTER_NAME":"EARTH","RA_OF_ASC_NODE":"261.7322","PERIOD":"95.592","RCS_SIZE":"LARGE","REV_AT_EPOCH":"6709","ARG_OF_PERICENTER":"62.4284","PERIAPSIS":"545.869","OBJECT_TYPE":"PAYLOAD","MEAN_MOTION_DDOT":"0.0000000000000","REF_FRAME":"TEME","SITE":"AFETR","MEAN_MOTION_DOT":"0.00000208","APOAPSIS":"548.544","ELEMENT_SET_NO":"999","GP_ID":"193215675","CLASSIFICATION_TYPE":"U","MEAN_MOTION":"15.06402258","NORAD_CAT_ID":"46692","EPHEMERIS_TYPE":"0","FILE":"3264067","TIME_SYSTEM":"UTC","EPOCH":"2022-01-04T21:13:30.882144","OBJECT_ID":"2020-073Y","TLE_LINE1":"1 46692U 20073Y   22004.88438521  .00000208  00000-0  32894-4 0  9996","MEAN_ELEMENT_THEORY":"SGP4","BSTAR":"0.00003289400000","OBJECT_NAME":"STARLINK-1791","INCLINATION":"53.0536","ECCENTRICITY":"0.00019310","DECAY_DATE":null,"COUNTRY_CODE":"US","LAUNCH_DATE":"2020-10-18"},{"TLE_LINE2":"2 46693  53.0544 246.6531 0001914  61.6382 298.4799 15.06388909 67302","MEAN_ANOMALY":"298.4799","SEMIMAJOR_AXIS":"6925.383","CENTER_NAME":"EARTH","RCS_SIZE":"LARGE","PERIOD":"95.593","RA_OF_ASC_NODE":"246.6531","ARG_OF_PERICENTER":"61.6382","REV_AT_EPOCH":"6730","PERIAPSIS":"545.922","OBJECT_TYPE":"PAYLOAD","REF_FRAME":"TEME","MEAN_MOTION_DDOT":"0.0000000000000","SITE":"AFETR","APOAPSIS":"548.573","MEAN_MOTION_DOT":"0.00000138","ELEMENT_SET_NO":"999","GP_ID":"193214423","CLASSIFICATION_TYPE":"U","MEAN_MOTION":"15.06388909","NORAD_CAT_ID":"46693","EPHEMERIS_TYPE":"0","FILE":"3264067","OBJECT_ID":"2020-073Z","EPOCH":"2022-01-04T21:39:24.365376","TIME_SYSTEM":"UTC","TLE_LINE1":"1 46693U 20073Z   22004.90236534  .00000138  00000-0  28200-4 0  9998","MEAN_ELEMENT_THEORY":"SGP4","BSTAR":"0.00002820000000","INCLINATION":"53.0544","OBJECT_NAME":"STARLINK-1792","ECCENTRICITY":"0.00019140","DECAY_DATE":null,"COUNTRY_CODE":"US","LAUNCH_DATE":"2020-10-18"},{"GP_ID":"193214673","CLASSIFICATION_TYPE":"U","MEAN_MOTION":"15.06395100","EPHEMERIS_TYPE":"0","NORAD_CAT_ID":"46694","FILE":"3264067","EPOCH":"2022-01-04T22:13:54.934464","OBJECT_ID":"2020-073AA","TIME_SYSTEM":"UTC","TLE_LINE1":"1 46694U 20073AA  22004.92633026 -.00000611  00000-0 -22033-4 0  9994","MEAN_ELEMENT_THEORY":"SGP4","BSTAR":"-0.00002203300000","OBJECT_NAME":"STARLINK-1793","INCLINATION":"53.0535","ECCENTRICITY":"0.00048530","DECAY_DATE":null,"COUNTRY_CODE":"US","LAUNCH_DATE":"2020-10-18","TLE_LINE2":"2 46694  53.0535 226.5605 0004853  61.2829 298.8647 15.06395100 67597","MEAN_ANOMALY":"298.8647","SEMIMAJOR_AXIS":"6925.364","CENTER_NAME":"EARTH","RCS_SIZE":"LARGE","RA_OF_ASC_NODE":"226.5605","PERIOD":"95.592","ARG_OF_PERICENTER":"61.2829","REV_AT_EPOCH":"6759","PERIAPSIS":"543.868","OBJECT_TYPE":"PAYLOAD","REF_FRAME":"TEME","MEAN_MOTION_DDOT":"0.0000000000000","SITE":"AFETR","APOAPSIS":"550.589","MEAN_MOTION_DOT":"-0.00000611","ELEMENT_SET_NO":"999"},{"TLE_LINE2":"2 46696  53.0544 226.7551 0001832  58.6630 301.4538 15.06389203 67581","MEAN_ANOMALY":"301.4538","CENTER_NAME":"EARTH","SEMIMAJOR_AXIS":"6925.382","RCS_SIZE":"LARGE","RA_OF_ASC_NODE":"226.7551","PERIOD":"95.593","PERIAPSIS":"545.978","ARG_OF_PERICENTER":"58.6630","REV_AT_EPOCH":"6758","OBJECT_TYPE":"PAYLOAD","REF_FRAME":"TEME","MEAN_MOTION_DDOT":"0.0000000000000","SITE":"AFETR","ELEMENT_SET_NO":"999","APOAPSIS":"548.515","MEAN_MOTION_DOT":"-0.00000978","EPHEMERIS_TYPE":"0","NORAD_CAT_ID":"46696","CLASSIFICATION_TYPE":"U","GP_ID":"193215425","MEAN_MOTION":"15.06389203","FILE":"3264067","EPOCH":"2022-01-04T21:04:53.881824","OBJECT_ID":"2020-073AC","TIME_SYSTEM":"UTC","MEAN_ELEMENT_THEORY":"SGP4","TLE_LINE1":"1 46696U 20073AC  22004.87840141 -.00000978  00000-0 -46789-4 0  9998","BSTAR":"-0.00004678900000","ECCENTRICITY":"0.00018320","INCLINATION":"53.0544","OBJECT_NAME":"STARLINK-1795","COUNTRY_CODE":"US","LAUNCH_DATE":"2020-10-18","DECAY_DATE":null},{"BSTAR":"0.00009206600000","TLE_LINE1":"1 46698U 20073AE  22004.86918097  .00001090  00000-0  92066-4 0  9998","MEAN_ELEMENT_THEORY":"SGP4","DECAY_DATE":null,"COUNTRY_CODE":"US","LAUNCH_DATE":"2020-10-18","INCLINATION":"53.0535","OBJECT_NAME":"STARLINK-1797","ECCENTRICITY":"0.00020770","FILE":"3264067","MEAN_MOTION":"15.06402881","GP_ID":"193216175","CLASSIFICATION_TYPE":"U","EPHEMERIS_TYPE":"0","NORAD_CAT_ID":"46698","TIME_SYSTEM":"UTC","OBJECT_ID":"2020-073AE","EPOCH":"2022-01-04T20:51:37.235808","MEAN_MOTION_DDOT":"0.0000000000000","REF_FRAME":"TEME","OBJECT_TYPE":"PAYLOAD","MEAN_MOTION_DOT":"0.00001090","APOAPSIS":"548.643","ELEMENT_SET_NO":"999","SITE":"AFETR","SEMIMAJOR_AXIS":"6925.340","CENTER_NAME":"EARTH","MEAN_ANOMALY":"307.8795","TLE_LINE2":"2 46698  53.0535 246.8048 0002077  52.2382 307.8795 15.06402881 67306","REV_AT_EPOCH":"6730","ARG_OF_PERICENTER":"52.2382","PERIAPSIS":"545.766","RA_OF_ASC_NODE":"246.8048","PERIOD":"95.592","RCS_SIZE":"LARGE"}];
